[{"OBJECT_NAME":"STARLINK-2687","OBJECT_ID":"2021-040AQ","EPOCH":"2026-03-10T00:00:02.999808","MEAN_MOTION":15.24260316,"ECCENTRICITY":0.00010712,"INCLINATION":53.1324,"RA_OF_ASC_NODE":189.5777,"ARG_OF_PERICENTER":104.2289,"MEAN_ANOMALY":86.7972,"EPHEMERIS_TYPE":0,"CLASSIFICATION_TYPE":"U","NORAD_CAT_ID":48466,"ELEMENT_SET_NO":999,"REV_AT_EPOCH":574,"BSTAR":0.058006,"MEAN_MOTION_DOT":0.01578852,"MEAN_MOTION_DDOT":0},{"OBJECT_NAME":"FLOCK 4BE-6","OBJECT_ID":"2024-149BA","EPOCH":"2026-03-09T10:55:08.664960","MEAN_MOTION":15.36615485,"ECCENTRICITY":0.0002253,"INCLINATION":97.3824,"RA_OF_ASC_NODE":151.5086,"ARG_OF_PERICENTER":289.6098,"MEAN_ANOMALY":70.4903,"EPHEMERIS_TYPE":0,"CLASSIFICATION_TYPE":"U","NORAD_CAT_ID":60516,"ELEMENT_SET_NO":999,"REV_AT_EPOCH":8694,"BSTAR":0.00048320251,"MEAN_MOTION_DOT":0.00017212,"MEAN_MOTION_DDOT":0}]
